STARLINK-5743           
1 55597U 23020AE  26068.87853722  .00030642  00000+0  22575-2 0  9999
2 55597  43.0041 351.0025 0004696  34.3722 325.7423 15.02796951169093
QPS-SAR-8 (AMATERU-IV)  
1 60542U 24149CC  26068.70418071  .00008268  00000+0  61811-3 0  9990
2 60542  97.6699 148.7511 0003873  93.1500 267.0168 15.03026697 85328
